CCSDS_OEM_VERS = 1.0
CREATION_DATE  = 2017-05-11T11:20:02
ORIGINATOR     = GMAT USER

META_START
OBJECT_NAME          = MOPSSat_alt_35785_km_RAAN_90_128
OBJECT_ID            = SatId
CENTER_NAME          = Earth
REF_FRAME            = EME2000
TIME_SYSTEM          = UTC
START_TIME           = 2017-01-01T00:00:00.000
USEABLE_START_TIME   = 2017-01-01T00:00:00.000
USEABLE_STOP_TIME    = 2017-01-02T00:00:00.000
STOP_TIME            = 2017-01-02T00:00:00.000
INTERPOLATION        = Lagrange
INTERPOLATION_DEGREE = 7 
META_STOP


                                                                                   

2017-01-01T17:06:40.000   3.556283074045417e+04  -3.229900459238156e+04  -1.243578620295934e+03   1.199213957820192e+00   2.386424676166345e+00  -4.197753558383661e-02
2017-01-01T17:06:50.000   3.557481649227033e+04  -3.227513454690092e+04  -1.243998172510284e+03   1.197936282879564e+00   2.387584451775752e+00  -4.193290299790169e-02
2017-01-01T17:07:00.000   3.558678946231565e+04  -3.225125290538839e+04  -1.244417278223025e+03   1.196657606255418e+00   2.388743887728534e+00  -4.188823535283263e-02
2017-01-01T17:07:10.000   3.559874964069881e+04  -3.222735967098953e+04  -1.244835937087957e+03   1.195377927390774e+00   2.389902983413631e+00  -4.184353262909941e-02
2017-01-01T17:07:20.000   3.561069701740034e+04  -3.220345484709707e+04  -1.245254148754397e+03   1.194097245741193e+00   2.391061738207113e+00  -4.179879480761008e-02
2017-01-01T17:07:30.000   3.562263158238940e+04  -3.217953843712284e+04  -1.245671912871261e+03   1.192815560762621e+00   2.392220151483380e+00  -4.175402186928601e-02
2017-01-01T17:07:40.000   3.563455332562311e+04  -3.215561044449709e+04  -1.246089229087046e+03   1.191532871911327e+00   2.393378222615134e+00  -4.170921379505992e-02
2017-01-01T17:07:50.000   3.564646223693364e+04  -3.213167087290015e+04  -1.246506097045872e+03   1.190249178656379e+00   2.394535950962290e+00  -4.166437056631143e-02
2017-01-01T17:08:00.000   3.565835830618090e+04  -3.210771972595105e+04  -1.246922516392834e+03   1.188964480462896e+00   2.395693335886931e+00  -4.161949216428233e-02
2017-01-01T17:08:10.000   3.567024152319109e+04  -3.208375700733243e+04  -1.247338486771843e+03   1.187678776798758e+00   2.396850376747293e+00  -4.157457857031074e-02
2017-01-01T17:08:20.000   3.568211187802937e+04  -3.205978272024060e+04  -1.247754007835174e+03   1.186392067105106e+00   2.398007072924317e+00  -4.152962976480062e-02
2017-01-01T17:08:30.000   3.569396936072628e+04  -3.203579686793676e+04  -1.248169079233892e+03   1.185104350825907e+00   2.399163423795027e+00  -4.148464572825462e-02
2017-01-01T17:08:40.000   3.570581396134856e+04  -3.201179945360478e+04  -1.248583700620329e+03   1.183815627400331e+00   2.400319428739397e+00  -4.143962644100783e-02
2017-01-01T17:08:50.000   3.571764566980851e+04  -3.198779048073321e+04  -1.248997871641409e+03   1.182525896283218e+00   2.401475087121862e+00  -4.139457188394258e-02
2017-01-01T17:09:00.000   3.572946447602154e+04  -3.196376995280020e+04  -1.249411591944162e+03   1.181235156928207e+00   2.402630398306575e+00  -4.134948203789927e-02
2017-01-01T17:09:10.000   3.574127036986974e+04  -3.193973787334619e+04  -1.249824861174459e+03   1.179943408791623e+00   2.403785361653896e+00  -4.130435688381210e-02
2017-01-01T17:09:20.000   3.575306334121680e+04  -3.191569424594649e+04  -1.250237678977518e+03   1.178650651331032e+00   2.404939976521764e+00  -4.125919640265851e-02
2017-01-01T17:09:30.000   3.576484337991375e+04  -3.189163907419709e+04  -1.250650044998120e+03   1.177356884004458e+00   2.406094242266331e+00  -4.121400057543194e-02
2017-01-01T17:09:40.000   3.577661047581326e+04  -3.186757236168595e+04  -1.251061958881099e+03   1.176062106268837e+00   2.407248158243334e+00  -4.116876938308776e-02
2017-01-01T17:09:50.000   3.578836461877676e+04  -3.184349411198021e+04  -1.251473420271597e+03   1.174766317579353e+00   2.408401723808764e+00  -4.112350280652004e-02
2017-01-01T17:10:00.000   3.580010579868755e+04  -3.181940432859703e+04  -1.251884428815520e+03   1.173469517387839e+00   2.409554938320195e+00  -4.107820082650586e-02
2017-01-01T17:10:10.000   3.581183400541533e+04  -3.179530301507714e+04  -1.252294984158300e+03   1.172171705146751e+00   2.410707801133294e+00  -4.103286342384383e-02
2017-01-01T17:10:20.000   3.582354922896961e+04  -3.177119017466609e+04  -1.252705085950261e+03   1.170872880291960e+00   2.411860311616968e+00  -4.098749057875336e-02
2017-01-01T17:10:30.000   3.583525145931364e+04  -3.174706581070030e+04  -1.253114733840107e+03   1.169573042263584e+00   2.413012469134991e+00  -4.094208227160196e-02
2017-01-01T17:10:40.000   3.584694068643482e+04  -3.172292992646123e+04  -1.253523927477387e+03   1.168272190498121e+00   2.414164273052956e+00  -4.089663848263077e-02
2017-01-01T17:10:50.000   3.585861690007131e+04  -3.169878252573968e+04  -1.253932666502928e+03   1.166970324458861e+00   2.415315722711329e+00  -4.085115919301675e-02
2017-01-01T17:11:00.000   3.587028008998554e+04  -3.167462361227168e+04  -1.254340950558401e+03   1.165667443605488e+00   2.416466817452400e+00  -4.080564438381089e-02
2017-01-01T17:11:10.000   3.588193024589353e+04  -3.165045318988394e+04  -1.254748779283856e+03   1.164363547401914e+00   2.417617556613302e+00  -4.076009403621179e-02
2017-01-01T17:11:20.000   3.589356735765229e+04  -3.162627126210925e+04  -1.255156152324277e+03   1.163058635295575e+00   2.418767939544444e+00  -4.071450813084250e-02
2017-01-01T17:11:30.000   3.590519141510494e+04  -3.160207783250372e+04  -1.255563069324161e+03   1.161752706734504e+00   2.419917965594296e+00  -4.066888664834680e-02
2017-01-01T17:11:40.000   3.591680240811638e+04  -3.157787290457364e+04  -1.255969529928767e+03   1.160445761163392e+00   2.421067634112899e+00  -4.062322956925169e-02
2017-01-01T17:11:50.000   3.592840032655883e+04  -3.155365648180325e+04  -1.256375533783611e+03   1.159137798025060e+00   2.422216944450478e+00  -4.057753687401878e-02
2017-01-01T17:12:00.000   3.593998516030589e+04  -3.152942856766879e+04  -1.256781080534255e+03   1.157828816761243e+00   2.423365895956822e+00  -4.053180854307177e-02
2017-01-01T17:12:10.000   3.595155689921875e+04  -3.150518916566767e+04  -1.257186169825830e+03   1.156518816814162e+00   2.424514487979906e+00  -4.048604455685122e-02
2017-01-01T17:12:20.000   3.596311553313900e+04  -3.148093827933128e+04  -1.257590801302777e+03   1.155207797627194e+00   2.425662719865222e+00  -4.044024489583803e-02
2017-01-01T17:12:30.000   3.597466105187586e+04  -3.145667591225438e+04  -1.257994974608403e+03   1.153895758646492e+00   2.426810590954453e+00  -4.039440954060999e-02
2017-01-01T17:12:40.000   3.598619344524088e+04  -3.143240206802108e+04  -1.258398689386099e+03   1.152582699316964e+00   2.427958100588948e+00  -4.034853847170144e-02
2017-01-01T17:12:50.000   3.599771270289728e+04  -3.140811675052582e+04  -1.258801945274062e+03   1.151268619099681e+00   2.429105248094641e+00  -4.030263167021124e-02
2017-01-01T17:13:00.000   3.600921881454284e+04  -3.138381996358472e+04  -1.259204741911699e+03   1.149953517450808e+00   2.430252032800322e+00  -4.025668911706688e-02
2017-01-01T17:13:10.000   3.602071176984176e+04  -3.135951171107987e+04  -1.259607078937240e+03   1.148637393829433e+00   2.431398454030844e+00  -4.021071079329781e-02
2017-01-01T17:13:20.000   3.603219155868911e+04  -3.133519199640053e+04  -1.260008955996996e+03   1.147320247667294e+00   2.432544511133493e+00  -4.016469667897815e-02
2017-01-01T17:13:30.000   3.604365817094687e+04  -3.131086082300045e+04  -1.260410372736122e+03   1.146002078398970e+00   2.433690203451670e+00  -4.011864675428099e-02
2017-01-01T17:13:40.000   3.605511159650404e+04  -3.128651819427193e+04  -1.260811328800717e+03   1.144682885455052e+00   2.434835530330860e+00  -4.007256099924021e-02
2017-01-01T17:13:50.000   3.606655182512646e+04  -3.126216411385938e+04  -1.261211823832568e+03   1.143362668279092e+00   2.435980491103753e+00  -4.002643939434238e-02
2017-01-01T17:14:00.000   3.607797884656875e+04  -3.123779858542698e+04  -1.261611857473069e+03   1.142041426315061e+00   2.437125085101293e+00  -3.998028192008872e-02
2017-01-01T17:14:10.000   3.608939265057362e+04  -3.121342161265804e+04  -1.262011429363196e+03   1.140719159007300e+00   2.438269311652668e+00  -3.993408855699312e-02
2017-01-01T17:14:20.000   3.610079322676389e+04  -3.118903319949090e+04  -1.262410539139731e+03   1.139395865813359e+00   2.439413170074351e+00  -3.988785928603118e-02
2017-01-01T17:14:30.000   3.611218056478862e+04  -3.116463334980181e+04  -1.262809186440369e+03   1.138071546186754e+00   2.440556659684866e+00  -3.984159408803731e-02
2017-01-01T17:14:40.000   3.612355465426529e+04  -3.114022206752966e+04  -1.263207370901704e+03   1.136746199583744e+00   2.441699779798969e+00  -3.979529294394173e-02
2017-01-01T17:14:50.000   3.613491548503663e+04  -3.111579935612524e+04  -1.263605092168211e+03   1.135419825433426e+00   2.442842529753437e+00  -3.974895583372577e-02
2017-01-01T17:15:00.000   3.614626304691357e+04  -3.109136521910191e+04  -1.264002349883255e+03   1.134092423167631e+00   2.443984908881268e+00  -3.970258273746619e-02
2017-01-01T17:15:10.000   3.615759732973376e+04  -3.106691965991129e+04  -1.264399143691133e+03   1.132763992214186e+00   2.445126916517519e+00  -3.965617363509980e-02
2017-01-01T17:15:20.000   3.616891832321283e+04  -3.104246268225835e+04  -1.264795473231873e+03   1.131434532013975e+00   2.446268551984462e+00  -3.960972850701949e-02
2017-01-01T17:15:30.000   3.618022601705523e+04  -3.101799428986794e+04  -1.265191338145109e+03   1.130104042008312e+00   2.447409814602612e+00  -3.956324733363319e-02
2017-01-01T17:15:40.000   3.619152040095357e+04  -3.099351448648421e+04  -1.265586738070061e+03   1.128772521638886e+00   2.448550703690714e+00  -3.951673009536184e-02
